{
  "type": "FeatureCollection",
  "name": "Inlets",
  "crs": {
    "type": "name",
    "properties": {
      "name": "urn:ogc:def:crs:OGC:1.3:CRS84"
    }
  },
  "features": [
    {
      "type": "Feature",
      "id": 1,
      "properties": {
        "node_id": "DP-001",
        "captured_at": "2026-07-31T08:10:00-04:00",
        "status": "surveyed",
        "source": "synthetic_demo"
      },
      "geometry": { "type": "Point", "coordinates": [-80.84672, 35.23012] }
    },
    {
      "type": "Feature",
      "id": 2,
      "properties": {
        "node_id": "DP-002",
        "captured_at": "2026-07-31T08:14:00-04:00",
        "status": "surveyed",
        "source": "synthetic_demo"
      },
      "geometry": { "type": "Point", "coordinates": [-80.84585, 35.22962] }
    },
    {
      "type": "Feature",
      "id": 3,
      "properties": {
        "node_id": "DP-003",
        "captured_at": "2026-07-31T08:19:00-04:00",
        "status": "surveyed",
        "source": "synthetic_demo"
      },
      "geometry": { "type": "Point", "coordinates": [-80.84496, 35.22910] }
    },
    {
      "type": "Feature",
      "id": 4,
      "properties": {
        "node_id": "DP-004",
        "captured_at": "2026-07-31T08:23:00-04:00",
        "status": "surveyed",
        "source": "synthetic_demo"
      },
      "geometry": { "type": "Point", "coordinates": [-80.84405, 35.22862] }
    },
    {
      "type": "Feature",
      "id": 5,
      "properties": {
        "node_id": "DP-005",
        "captured_at": "2026-07-31T08:28:00-04:00",
        "status": "surveyed",
        "source": "synthetic_demo"
      },
      "geometry": { "type": "Point", "coordinates": [-80.84623, 35.22895] }
    },
    {
      "type": "Feature",
      "id": 6,
      "properties": {
        "node_id": "DP-006",
        "captured_at": "2026-07-31T08:32:00-04:00",
        "status": "surveyed",
        "source": "synthetic_demo"
      },
      "geometry": { "type": "Point", "coordinates": [-80.84528, 35.22843] }
    },
    {
      "type": "Feature",
      "id": 7,
      "properties": {
        "node_id": "DP-007",
        "captured_at": "2026-07-31T08:38:00-04:00",
        "status": "surveyed",
        "source": "synthetic_demo"
      },
      "geometry": { "type": "Point", "coordinates": [-80.84438, 35.22791] }
    },
    {
      "type": "Feature",
      "id": 8,
      "properties": {
        "node_id": "DP-008",
        "captured_at": "2026-07-31T08:44:00-04:00",
        "status": "surveyed",
        "source": "synthetic_demo"
      },
      "geometry": { "type": "Point", "coordinates": [-80.84346, 35.22742] }
    },
    {
      "type": "Feature",
      "id": 9,
      "properties": {
        "node_id": "DP-009",
        "captured_at": "2026-07-31T08:49:00-04:00",
        "status": "surveyed",
        "source": "synthetic_demo"
      },
      "geometry": { "type": "Point", "coordinates": [-80.84573, 35.22774] }
    },
    {
      "type": "Feature",
      "id": 10,
      "properties": {
        "node_id": "DP-010",
        "captured_at": "2026-07-31T08:54:00-04:00",
        "status": "surveyed",
        "source": "synthetic_demo"
      },
      "geometry": { "type": "Point", "coordinates": [-80.84482, 35.22722] }
    }
  ]
}

